{
  "type": "FeatureCollection",
  "features": [
    {
      "type": "Feature",
      "id": "940GZZLUACT",
      "properties": {
        "id": "940GZZLUACT",
        "name": "Acton Town Underground Station",
        "lines": "Piccadilly",
        "zone": "3",
        "zoneMax": 3,
        "source": "TfL Unified API"
      },
      "geometry": {
        "type": "Point",
        "coordinates": [
          -0.280462,
          51.503057
        ]
      }
    },
    {
      "type": "Feature",
      "id": "940GZZLUACY",
      "properties": {
        "id": "940GZZLUACY",
        "name": "Archway Underground Station",
        "lines": "Northern",
        "zone": "2+3",
        "zoneMax": 3,
        "source": "TfL Unified API"
      },
      "geometry": {
        "type": "Point",
        "coordinates": [
          -0.134819,
          51.565478
        ]
      }
    },
    {
      "type": "Feature",
      "id": "940GZZLUASG",
      "properties": {
        "id": "940GZZLUASG",
        "name": "Arnos Grove Underground Station",
        "lines": "Piccadilly",
        "zone": "4",
        "zoneMax": 4,
        "source": "TfL Unified API"
      },
      "geometry": {
        "type": "Point",
        "coordinates": [
          -0.133062,
          51.616446
        ]
      }
    },
    {
      "type": "Feature",
      "id": "940GZZLUASL",
      "properties": {
        "id": "940GZZLUASL",
        "name": "Arsenal Underground Station",
        "lines": "Piccadilly",
        "zone": "2",
        "zoneMax": 2,
        "source": "TfL Unified API"
      },
      "geometry": {
        "type": "Point",
        "coordinates": [
          -0.107457,
          51.558655
        ]
      }
    },
    {
      "type": "Feature",
      "id": "940GZZLUBST",
      "properties": {
        "id": "940GZZLUBST",
        "name": "Baker Street Underground Station",
        "lines": "Jubilee",
        "zone": "1",
        "zoneMax": 1,
        "source": "TfL Unified API"
      },
      "geometry": {
        "type": "Point",
        "coordinates": [
          -0.15713,
          51.522883
        ]
      }
    },
    {
      "type": "Feature",
      "id": "940GZZLUBLM",
      "properties": {
        "id": "940GZZLUBLM",
        "name": "Balham Underground Station",
        "lines": "Northern",
        "zone": "3",
        "zoneMax": 3,
        "source": "TfL Unified API"
      },
      "geometry": {
        "type": "Point",
        "coordinates": [
          -0.152997,
          51.443288
        ]
      }
    },
    {
      "type": "Feature",
      "id": "940GZZLUBNK",
      "properties": {
        "id": "940GZZLUBNK",
        "name": "Bank Underground Station",
        "lines": "Central",
        "zone": "1",
        "zoneMax": 1,
        "source": "TfL Unified API"
      },
      "geometry": {
        "type": "Point",
        "coordinates": [
          -0.090047,
          51.513132
        ]
      }
    },
    {
      "type": "Feature",
      "id": "940GZZLUBKE",
      "properties": {
        "id": "940GZZLUBKE",
        "name": "Barkingside Underground Station",
        "lines": "Central",
        "zone": "4",
        "zoneMax": 4,
        "source": "TfL Unified API"
      },
      "geometry": {
        "type": "Point",
        "coordinates": [
          0.088585,
          51.585689
        ]
      }
    },
    {
      "type": "Feature",
      "id": "940GZZLUBSC",
      "properties": {
        "id": "940GZZLUBSC",
        "name": "Barons Court Underground Station",
        "lines": "Piccadilly",
        "zone": "2",
        "zoneMax": 2,
        "source": "TfL Unified API"
      },
      "geometry": {
        "type": "Point",
        "coordinates": [
          -0.213427,
          51.490311
        ]
      }
    },
    {
      "type": "Feature",
      "id": "940GZZLUBZP",
      "properties": {
        "id": "940GZZLUBZP",
        "name": "Belsize Park Underground Station",
        "lines": "Northern",
        "zone": "2",
        "zoneMax": 2,
        "source": "TfL Unified API"
      },
      "geometry": {
        "type": "Point",
        "coordinates": [
          -0.164648,
          51.550311
        ]
      }
    },
    {
      "type": "Feature",
      "id": "940GZZLUBMY",
      "properties": {
        "id": "940GZZLUBMY",
        "name": "Bermondsey Underground Station",
        "lines": "Jubilee",
        "zone": "2",
        "zoneMax": 2,
        "source": "TfL Unified API"
      },
      "geometry": {
        "type": "Point",
        "coordinates": [
          -0.063993,
          51.49775
        ]
      }
    },
    {
      "type": "Feature",
      "id": "940GZZLUBLG",
      "properties": {
        "id": "940GZZLUBLG",
        "name": "Bethnal Green Underground Station",
        "lines": "Central",
        "zone": "2",
        "zoneMax": 2,
        "source": "TfL Unified API"
      },
      "geometry": {
        "type": "Point",
        "coordinates": [
          -0.055506,
          51.527222
        ]
      }
    },
    {
      "type": "Feature",
      "id": "940GZZLUBLR",
      "properties": {
        "id": "940GZZLUBLR",
        "name": "Blackhorse Road Underground Station",
        "lines": "Victoria",
        "zone": "3",
        "zoneMax": 3,
        "source": "TfL Unified API"
      },
      "geometry": {
        "type": "Point",
        "coordinates": [
          -0.04115,
          51.586919
        ]
      }
    },
    {
      "type": "Feature",
      "id": "940GZZLUBND",
      "properties": {
        "id": "940GZZLUBND",
        "name": "Bond Street Underground Station",
        "lines": "Central, Jubilee",
        "zone": "1",
        "zoneMax": 1,
        "source": "TfL Unified API"
      },
      "geometry": {
        "type": "Point",
        "coordinates": [
          -0.149723,
          51.514304
        ]
      }
    },
    {
      "type": "Feature",
      "id": "940GZZLUBOS",
      "properties": {
        "id": "940GZZLUBOS",
        "name": "Boston Manor Underground Station",
        "lines": "Piccadilly",
        "zone": "4",
        "zoneMax": 4,
        "source": "TfL Unified API"
      },
      "geometry": {
        "type": "Point",
        "coordinates": [
          -0.324939,
          51.495635
        ]
      }
    },
    {
      "type": "Feature",
      "id": "940GZZLUBDS",
      "properties": {
        "id": "940GZZLUBDS",
        "name": "Bounds Green Underground Station",
        "lines": "Piccadilly",
        "zone": "3+4",
        "zoneMax": 4,
        "source": "TfL Unified API"
      },
      "geometry": {
        "type": "Point",
        "coordinates": [
          -0.124235,
          51.607034
        ]
      }
    },
    {
      "type": "Feature",
      "id": "940GZZLUBTX",
      "properties": {
        "id": "940GZZLUBTX",
        "name": "Brent Cross Underground Station",
        "lines": "Northern",
        "zone": "3",
        "zoneMax": 3,
        "source": "TfL Unified API"
      },
      "geometry": {
        "type": "Point",
        "coordinates": [
          -0.213622,
          51.57665
        ]
      }
    },
    {
      "type": "Feature",
      "id": "940GZZLUBXN",
      "properties": {
        "id": "940GZZLUBXN",
        "name": "Brixton Underground Station",
        "lines": "Victoria",
        "zone": "2",
        "zoneMax": 2,
        "source": "TfL Unified API"
      },
      "geometry": {
        "type": "Point",
        "coordinates": [
          -0.114888,
          51.462618
        ]
      }
    },
    {
      "type": "Feature",
      "id": "940GZZLUBKH",
      "properties": {
        "id": "940GZZLUBKH",
        "name": "Buckhurst Hill Underground Station",
        "lines": "Central",
        "zone": "5",
        "zoneMax": 5,
        "source": "TfL Unified API"
      },
      "geometry": {
        "type": "Point",
        "coordinates": [
          0.046757,
          51.626605
        ]
      }
    },
    {
      "type": "Feature",
      "id": "940GZZLUBTK",
      "properties": {
        "id": "940GZZLUBTK",
        "name": "Burnt Oak Underground Station",
        "lines": "Northern",
        "zone": "4",
        "zoneMax": 4,
        "source": "TfL Unified API"
      },
      "geometry": {
        "type": "Point",
        "coordinates": [
          -0.264048,
          51.602774
        ]
      }
    },
    {
      "type": "Feature",
      "id": "940GZZLUCAR",
      "properties": {
        "id": "940GZZLUCAR",
        "name": "Caledonian Road Underground Station",
        "lines": "Piccadilly",
        "zone": "2",
        "zoneMax": 2,
        "source": "TfL Unified API"
      },
      "geometry": {
        "type": "Point",
        "coordinates": [
          -0.118493,
          51.548519
        ]
      }
    },
    {
      "type": "Feature",
      "id": "940GZZLUCTN",
      "properties": {
        "id": "940GZZLUCTN",
        "name": "Camden Town Underground Station",
        "lines": "Northern",
        "zone": "2",
        "zoneMax": 2,
        "source": "TfL Unified API"
      },
      "geometry": {
        "type": "Point",
        "coordinates": [
          -0.14274,
          51.539292
        ]
      }
    },
    {
      "type": "Feature",
      "id": "910GCNDAW",
      "properties": {
        "id": "910GCNDAW",
        "name": "Canada Water Rail Station",
        "lines": "Windrush",
        "zone": "2",
        "zoneMax": 2,
        "source": "TfL Unified API"
      },
      "geometry": {
        "type": "Point",
        "coordinates": [
          -0.04972,
          51.49799
        ]
      }
    },
    {
      "type": "Feature",
      "id": "940GZZLUCWR",
      "properties": {
        "id": "940GZZLUCWR",
        "name": "Canada Water Underground Station",
        "lines": "Jubilee",
        "zone": "2",
        "zoneMax": 2,
        "source": "TfL Unified API"
      },
      "geometry": {
        "type": "Point",
        "coordinates": [
          -0.049405,
          51.497931
        ]
      }
    },
    {
      "type": "Feature",
      "id": "940GZZLUCYF",
      "properties": {
        "id": "940GZZLUCYF",
        "name": "Canary Wharf Underground Station",
        "lines": "Jubilee",
        "zone": "2",
        "zoneMax": 2,
        "source": "TfL Unified API"
      },
      "geometry": {
        "type": "Point",
        "coordinates": [
          -0.018246,
          51.503488
        ]
      }
    },
    {
      "type": "Feature",
      "id": "940GZZLUCGT",
      "properties": {
        "id": "940GZZLUCGT",
        "name": "Canning Town Underground Station",
        "lines": "Jubilee",
        "zone": "2/3",
        "zoneMax": 3,
        "source": "TfL Unified API"
      },
      "geometry": {
        "type": "Point",
        "coordinates": [
          0.008322,
          51.513584
        ]
      }
    },
    {
      "type": "Feature",
      "id": "910GCNNB",
      "properties": {
        "id": "910GCNNB",
        "name": "Canonbury Rail Station",
        "lines": "Windrush",
        "zone": "2",
        "zoneMax": 2,
        "source": "TfL Unified API"
      },
      "geometry": {
        "type": "Point",
        "coordinates": [
          -0.092191,
          51.548732
        ]
      }
    },
    {
      "type": "Feature",
      "id": "940GZZLUCPK",
      "properties": {
        "id": "940GZZLUCPK",
        "name": "Canons Park Underground Station",
        "lines": "Jubilee",
        "zone": "5",
        "zoneMax": 5,
        "source": "TfL Unified API"
      },
      "geometry": {
        "type": "Point",
        "coordinates": [
          -0.294693,
          51.607701
        ]
      }
    },
    {
      "type": "Feature",
      "id": "940GZZLUCFM",
      "properties": {
        "id": "940GZZLUCFM",
        "name": "Chalk Farm Underground Station",
        "lines": "Northern",
        "zone": "2",
        "zoneMax": 2,
        "source": "TfL Unified API"
      },
      "geometry": {
        "type": "Point",
        "coordinates": [
          -0.153388,
          51.544118
        ]
      }
    },
    {
      "type": "Feature",
      "id": "940GZZLUCHL",
      "properties": {
        "id": "940GZZLUCHL",
        "name": "Chancery Lane Underground Station",
        "lines": "Central",
        "zone": "1",
        "zoneMax": 1,
        "source": "TfL Unified API"
      },
      "geometry": {
        "type": "Point",
        "coordinates": [
          -0.111583,
          51.518247
        ]
      }
    },
    {
      "type": "Feature",
      "id": "940GZZLUCHX",
      "properties": {
        "id": "940GZZLUCHX",
        "name": "Charing Cross Underground Station",
        "lines": "Northern",
        "zone": "1",
        "zoneMax": 1,
        "source": "TfL Unified API"
      },
      "geometry": {
        "type": "Point",
        "coordinates": [
          -0.127277,
          51.50741
        ]
      }
    },
    {
      "type": "Feature",
      "id": "940GZZLUCPC",
      "properties": {
        "id": "940GZZLUCPC",
        "name": "Clapham Common Underground Station",
        "lines": "Northern",
        "zone": "2",
        "zoneMax": 2,
        "source": "TfL Unified API"
      },
      "geometry": {
        "type": "Point",
        "coordinates": [
          -0.138317,
          51.461742
        ]
      }
    },
    {
      "type": "Feature",
      "id": "940GZZLUCPN",
      "properties": {
        "id": "940GZZLUCPN",
        "name": "Clapham North Underground Station",
        "lines": "Northern",
        "zone": "2",
        "zoneMax": 2,
        "source": "TfL Unified API"
      },
      "geometry": {
        "type": "Point",
        "coordinates": [
          -0.130016,
          51.465135
        ]
      }
    },
    {
      "type": "Feature",
      "id": "940GZZLUCPS",
      "properties": {
        "id": "940GZZLUCPS",
        "name": "Clapham South Underground Station",
        "lines": "Northern",
        "zone": "2+3",
        "zoneMax": 3,
        "source": "TfL Unified API"
      },
      "geometry": {
        "type": "Point",
        "coordinates": [
          -0.147582,
          51.452654
        ]
      }
    },
    {
      "type": "Feature",
      "id": "940GZZLUCKS",
      "properties": {
        "id": "940GZZLUCKS",
        "name": "Cockfosters Underground Station",
        "lines": "Piccadilly",
        "zone": "5",
        "zoneMax": 5,
        "source": "TfL Unified API"
      },
      "geometry": {
        "type": "Point",
        "coordinates": [
          -0.149171,
          51.65152
        ]
      }
    },
    {
      "type": "Feature",
      "id": "940GZZLUCND",
      "properties": {
        "id": "940GZZLUCND",
        "name": "Colindale Underground Station",
        "lines": "Northern",
        "zone": "4",
        "zoneMax": 4,
        "source": "TfL Unified API"
      },
      "geometry": {
        "type": "Point",
        "coordinates": [
          -0.249919,
          51.595424
        ]
      }
    },
    {
      "type": "Feature",
      "id": "940GZZLUCSD",
      "properties": {
        "id": "940GZZLUCSD",
        "name": "Colliers Wood Underground Station",
        "lines": "Northern",
        "zone": "3",
        "zoneMax": 3,
        "source": "TfL Unified API"
      },
      "geometry": {
        "type": "Point",
        "coordinates": [
          -0.178086,
          51.41816
        ]
      }
    },
    {
      "type": "Feature",
      "id": "940GZZLUCGN",
      "properties": {
        "id": "940GZZLUCGN",
        "name": "Covent Garden Underground Station",
        "lines": "Piccadilly",
        "zone": "1",
        "zoneMax": 1,
        "source": "TfL Unified API"
      },
      "geometry": {
        "type": "Point",
        "coordinates": [
          -0.124436,
          51.513093
        ]
      }
    },
    {
      "type": "Feature",
      "id": "910GDALS",
      "properties": {
        "id": "910GDALS",
        "name": "Dalston Junction Rail Station",
        "lines": "Windrush",
        "zone": "2",
        "zoneMax": 2,
        "source": "TfL Unified API"
      },
      "geometry": {
        "type": "Point",
        "coordinates": [
          -0.075137,
          51.546116
        ]
      }
    },
    {
      "type": "Feature",
      "id": "940GZZLUDOH",
      "properties": {
        "id": "940GZZLUDOH",
        "name": "Dollis Hill Underground Station",
        "lines": "Jubilee",
        "zone": "3",
        "zoneMax": 3,
        "source": "TfL Unified API"
      },
      "geometry": {
        "type": "Point",
        "coordinates": [
          -0.239068,
          51.551955
        ]
      }
    },
    {
      "type": "Feature",
      "id": "940GZZLUEBY",
      "properties": {
        "id": "940GZZLUEBY",
        "name": "Ealing Broadway Underground Station",
        "lines": "Central",
        "zone": "3",
        "zoneMax": 3,
        "source": "TfL Unified API"
      },
      "geometry": {
        "type": "Point",
        "coordinates": [
          -0.301457,
          51.515017
        ]
      }
    },
    {
      "type": "Feature",
      "id": "940GZZLUECT",
      "properties": {
        "id": "940GZZLUECT",
        "name": "Earl's Court Underground Station",
        "lines": "Piccadilly",
        "zone": "1+2",
        "zoneMax": 2,
        "source": "TfL Unified API"
      },
      "geometry": {
        "type": "Point",
        "coordinates": [
          -0.193378,
          51.492063
        ]
      }
    },
    {
      "type": "Feature",
      "id": "940GZZLUEAN",
      "properties": {
        "id": "940GZZLUEAN",
        "name": "East Acton Underground Station",
        "lines": "Central",
        "zone": "2",
        "zoneMax": 2,
        "source": "TfL Unified API"
      },
      "geometry": {
        "type": "Point",
        "coordinates": [
          -0.247248,
          51.516612
        ]
      }
    },
    {
      "type": "Feature",
      "id": "940GZZLUEFY",
      "properties": {
        "id": "940GZZLUEFY",
        "name": "East Finchley Underground Station",
        "lines": "Northern",
        "zone": "3",
        "zoneMax": 3,
        "source": "TfL Unified API"
      },
      "geometry": {
        "type": "Point",
        "coordinates": [
          -0.165012,
          51.587131
        ]
      }
    },
    {
      "type": "Feature",
      "id": "940GZZLUEGW",
      "properties": {
        "id": "940GZZLUEGW",
        "name": "Edgware Underground Station",
        "lines": "Northern",
        "zone": "5",
        "zoneMax": 5,
        "source": "TfL Unified API"
      },
      "geometry": {
        "type": "Point",
        "coordinates": [
          -0.274928,
          51.613653
        ]
      }
    },
    {
      "type": "Feature",
      "id": "940GZZLUEMB",
      "properties": {
        "id": "940GZZLUEMB",
        "name": "Embankment Underground Station",
        "lines": "Northern",
        "zone": "1",
        "zoneMax": 1,
        "source": "TfL Unified API"
      },
      "geometry": {
        "type": "Point",
        "coordinates": [
          -0.122666,
          51.507058
        ]
      }
    },
    {
      "type": "Feature",
      "id": "940GZZLUEUS",
      "properties": {
        "id": "940GZZLUEUS",
        "name": "Euston Underground Station",
        "lines": "Northern, Victoria",
        "zone": "1",
        "zoneMax": 1,
        "source": "TfL Unified API"
      },
      "geometry": {
        "type": "Point",
        "coordinates": [
          -0.133785,
          51.527999
        ]
      }
    },
    {
      "type": "Feature",
      "id": "940GZZLUFLP",
      "properties": {
        "id": "940GZZLUFLP",
        "name": "Fairlop Underground Station",
        "lines": "Central",
        "zone": "4",
        "zoneMax": 4,
        "source": "TfL Unified API"
      },
      "geometry": {
        "type": "Point",
        "coordinates": [
          0.091004,
          51.595618
        ]
      }
    },
    {
      "type": "Feature",
      "id": "940GZZLUFYC",
      "properties": {
        "id": "940GZZLUFYC",
        "name": "Finchley Central Underground Station",
        "lines": "Northern",
        "zone": "4",
        "zoneMax": 4,
        "source": "TfL Unified API"
      },
      "geometry": {
        "type": "Point",
        "coordinates": [
          -0.192527,
          51.600921
        ]
      }
    },
    {
      "type": "Feature",
      "id": "940GZZLUFYR",
      "properties": {
        "id": "940GZZLUFYR",
        "name": "Finchley Road Underground Station",
        "lines": "Jubilee",
        "zone": "2",
        "zoneMax": 2,
        "source": "TfL Unified API"
      },
      "geometry": {
        "type": "Point",
        "coordinates": [
          -0.179845,
          51.546825
        ]
      }
    },
    {
      "type": "Feature",
      "id": "940GZZLUFPK",
      "properties": {
        "id": "940GZZLUFPK",
        "name": "Finsbury Park Underground Station",
        "lines": "Piccadilly, Victoria",
        "zone": "2",
        "zoneMax": 2,
        "source": "TfL Unified API"
      },
      "geometry": {
        "type": "Point",
        "coordinates": [
          -0.106825,
          51.564158
        ]
      }
    },
    {
      "type": "Feature",
      "id": "940GZZLUGTH",
      "properties": {
        "id": "940GZZLUGTH",
        "name": "Gants Hill Underground Station",
        "lines": "Central",
        "zone": "4",
        "zoneMax": 4,
        "source": "TfL Unified API"
      },
      "geometry": {
        "type": "Point",
        "coordinates": [
          0.066185,
          51.576544
        ]
      }
    },
    {
      "type": "Feature",
      "id": "940GZZLUGTR",
      "properties": {
        "id": "940GZZLUGTR",
        "name": "Gloucester Road Underground Station",
        "lines": "Piccadilly",
        "zone": "1",
        "zoneMax": 1,
        "source": "TfL Unified API"
      },
      "geometry": {
        "type": "Point",
        "coordinates": [
          -0.182658,
          51.494316
        ]
      }
    },
    {
      "type": "Feature",
      "id": "940GZZLUGGN",
      "properties": {
        "id": "940GZZLUGGN",
        "name": "Golders Green Underground Station",
        "lines": "Northern",
        "zone": "3",
        "zoneMax": 3,
        "source": "TfL Unified API"
      },
      "geometry": {
        "type": "Point",
        "coordinates": [
          -0.194039,
          51.572259
        ]
      }
    },
    {
      "type": "Feature",
      "id": "940GZZLUGDG",
      "properties": {
        "id": "940GZZLUGDG",
        "name": "Goodge Street Underground Station",
        "lines": "Northern",
        "zone": "1",
        "zoneMax": 1,
        "source": "TfL Unified API"
      },
      "geometry": {
        "type": "Point",
        "coordinates": [
          -0.134361,
          51.520599
        ]
      }
    },
    {
      "type": "Feature",
      "id": "940GZZLUGPK",
      "properties": {
        "id": "940GZZLUGPK",
        "name": "Green Park Underground Station",
        "lines": "Jubilee, Piccadilly, Victoria",
        "zone": "1",
        "zoneMax": 1,
        "source": "TfL Unified API"
      },
      "geometry": {
        "type": "Point",
        "coordinates": [
          -0.142787,
          51.506947
        ]
      }
    },
    {
      "type": "Feature",
      "id": "910GHAGGERS",
      "properties": {
        "id": "910GHAGGERS",
        "name": "Haggerston Rail Station",
        "lines": "Windrush",
        "zone": "2",
        "zoneMax": 2,
        "source": "TfL Unified API"
      },
      "geometry": {
        "type": "Point",
        "coordinates": [
          -0.075666,
          51.538705
        ]
      }
    },
    {
      "type": "Feature",
      "id": "940GZZLUHLT",
      "properties": {
        "id": "940GZZLUHLT",
        "name": "Hainault Underground Station",
        "lines": "Central",
        "zone": "4",
        "zoneMax": 4,
        "source": "TfL Unified API"
      },
      "geometry": {
        "type": "Point",
        "coordinates": [
          0.093482,
          51.603659
        ]
      }
    },
    {
      "type": "Feature",
      "id": "940GZZLUHSD",
      "properties": {
        "id": "940GZZLUHSD",
        "name": "Hammersmith (Dist&Picc Line) Underground Station",
        "lines": "Piccadilly",
        "zone": "2",
        "zoneMax": 2,
        "source": "TfL Unified API"
      },
      "geometry": {
        "type": "Point",
        "coordinates": [
          -0.22362,
          51.4923
        ]
      }
    },
    {
      "type": "Feature",
      "id": "940GZZLUHTD",
      "properties": {
        "id": "940GZZLUHTD",
        "name": "Hampstead Underground Station",
        "lines": "Northern",
        "zone": "2+3",
        "zoneMax": 3,
        "source": "TfL Unified API"
      },
      "geometry": {
        "type": "Point",
        "coordinates": [
          -0.177464,
          51.556239
        ]
      }
    },
    {
      "type": "Feature",
      "id": "940GZZLUHNX",
      "properties": {
        "id": "940GZZLUHNX",
        "name": "Hatton Cross Underground Station",
        "lines": "Piccadilly",
        "zone": "5+6",
        "zoneMax": 6,
        "source": "TfL Unified API"
      },
      "geometry": {
        "type": "Point",
        "coordinates": [
          -0.423191,
          51.466747
        ]
      }
    },
    {
      "type": "Feature",
      "id": "940GZZLUHR5",
      "properties": {
        "id": "940GZZLUHR5",
        "name": "Heathrow Terminal 5 Underground Station",
        "lines": "Piccadilly",
        "zone": "6",
        "zoneMax": 6,
        "source": "TfL Unified API"
      },
      "geometry": {
        "type": "Point",
        "coordinates": [
          -0.49056,
          51.470052
        ]
      }
    },
    {
      "type": "Feature",
      "id": "940GZZLUHRC",
      "properties": {
        "id": "940GZZLUHRC",
        "name": "Heathrow Terminals 2 & 3 Underground Station",
        "lines": "Piccadilly",
        "zone": "6",
        "zoneMax": 6,
        "source": "TfL Unified API"
      },
      "geometry": {
        "type": "Point",
        "coordinates": [
          -0.452265,
          51.471235
        ]
      }
    },
    {
      "type": "Feature",
      "id": "940GZZLUHCL",
      "properties": {
        "id": "940GZZLUHCL",
        "name": "Hendon Central Underground Station",
        "lines": "Northern",
        "zone": "3+4",
        "zoneMax": 4,
        "source": "TfL Unified API"
      },
      "geometry": {
        "type": "Point",
        "coordinates": [
          -0.226424,
          51.583301
        ]
      }
    },
    {
      "type": "Feature",
      "id": "940GZZLUHBT",
      "properties": {
        "id": "940GZZLUHBT",
        "name": "High Barnet Underground Station",
        "lines": "Northern",
        "zone": "5",
        "zoneMax": 5,
        "source": "TfL Unified API"
      },
      "geometry": {
        "type": "Point",
        "coordinates": [
          -0.194298,
          51.650541
        ]
      }
    },
    {
      "type": "Feature",
      "id": "910GHGHI",
      "properties": {
        "id": "910GHGHI",
        "name": "Highbury & Islington Rail Station",
        "lines": "Windrush",
        "zone": "2",
        "zoneMax": 2,
        "source": "TfL Unified API"
      },
      "geometry": {
        "type": "Point",
        "coordinates": [
          -0.103764,
          51.546177
        ]
      }
    },
    {
      "type": "Feature",
      "id": "940GZZLUHAI",
      "properties": {
        "id": "940GZZLUHAI",
        "name": "Highbury & Islington Underground Station",
        "lines": "Victoria",
        "zone": "2",
        "zoneMax": 2,
        "source": "TfL Unified API"
      },
      "geometry": {
        "type": "Point",
        "coordinates": [
          -0.103324,
          51.54635
        ]
      }
    },
    {
      "type": "Feature",
      "id": "940GZZLUHGT",
      "properties": {
        "id": "940GZZLUHGT",
        "name": "Highgate Underground Station",
        "lines": "Northern",
        "zone": "3",
        "zoneMax": 3,
        "source": "TfL Unified API"
      },
      "geometry": {
        "type": "Point",
        "coordinates": [
          -0.145857,
          51.577532
        ]
      }
    },
    {
      "type": "Feature",
      "id": "940GZZLUHBN",
      "properties": {
        "id": "940GZZLUHBN",
        "name": "Holborn Underground Station",
        "lines": "Central, Piccadilly",
        "zone": "1",
        "zoneMax": 1,
        "source": "TfL Unified API"
      },
      "geometry": {
        "type": "Point",
        "coordinates": [
          -0.120475,
          51.51758
        ]
      }
    },
    {
      "type": "Feature",
      "id": "940GZZLUHPK",
      "properties": {
        "id": "940GZZLUHPK",
        "name": "Holland Park Underground Station",
        "lines": "Central",
        "zone": "2",
        "zoneMax": 2,
        "source": "TfL Unified API"
      },
      "geometry": {
        "type": "Point",
        "coordinates": [
          -0.205679,
          51.507143
        ]
      }
    },
    {
      "type": "Feature",
      "id": "940GZZLUHWY",
      "properties": {
        "id": "940GZZLUHWY",
        "name": "Holloway Road Underground Station",
        "lines": "Piccadilly",
        "zone": "2",
        "zoneMax": 2,
        "source": "TfL Unified API"
      },
      "geometry": {
        "type": "Point",
        "coordinates": [
          -0.113244,
          51.552697
        ]
      }
    },
    {
      "type": "Feature",
      "id": "940GZZLUHWC",
      "properties": {
        "id": "940GZZLUHWC",
        "name": "Hounslow Central Underground Station",
        "lines": "Piccadilly",
        "zone": "4",
        "zoneMax": 4,
        "source": "TfL Unified API"
      },
      "geometry": {
        "type": "Point",
        "coordinates": [
          -0.366578,
          51.471295
        ]
      }
    },
    {
      "type": "Feature",
      "id": "940GZZLUHWE",
      "properties": {
        "id": "940GZZLUHWE",
        "name": "Hounslow East Underground Station",
        "lines": "Piccadilly",
        "zone": "4",
        "zoneMax": 4,
        "source": "TfL Unified API"
      },
      "geometry": {
        "type": "Point",
        "coordinates": [
          -0.356474,
          51.473213
        ]
      }
    },
    {
      "type": "Feature",
      "id": "940GZZLUHWT",
      "properties": {
        "id": "940GZZLUHWT",
        "name": "Hounslow West Underground Station",
        "lines": "Piccadilly",
        "zone": "5",
        "zoneMax": 5,
        "source": "TfL Unified API"
      },
      "geometry": {
        "type": "Point",
        "coordinates": [
          -0.386544,
          51.473469
        ]
      }
    },
    {
      "type": "Feature",
      "id": "910GHOXTON",
      "properties": {
        "id": "910GHOXTON",
        "name": "Hoxton Rail Station",
        "lines": "Windrush",
        "zone": "1+2",
        "zoneMax": 2,
        "source": "TfL Unified API"
      },
      "geometry": {
        "type": "Point",
        "coordinates": [
          -0.075681,
          51.531512
        ]
      }
    },
    {
      "type": "Feature",
      "id": "940GZZLUHPC",
      "properties": {
        "id": "940GZZLUHPC",
        "name": "Hyde Park Corner Underground Station",
        "lines": "Piccadilly",
        "zone": "1",
        "zoneMax": 1,
        "source": "TfL Unified API"
      },
      "geometry": {
        "type": "Point",
        "coordinates": [
          -0.152441,
          51.503035
        ]
      }
    },
    {
      "type": "Feature",
      "id": "940GZZLUKNG",
      "properties": {
        "id": "940GZZLUKNG",
        "name": "Kennington Underground Station",
        "lines": "Northern",
        "zone": "1+2",
        "zoneMax": 2,
        "source": "TfL Unified API"
      },
      "geometry": {
        "type": "Point",
        "coordinates": [
          -0.105963,
          51.488337
        ]
      }
    },
    {
      "type": "Feature",
      "id": "940GZZLUKSH",
      "properties": {
        "id": "940GZZLUKSH",
        "name": "Kentish Town Underground Station",
        "lines": "Northern",
        "zone": "2",
        "zoneMax": 2,
        "source": "TfL Unified API"
      },
      "geometry": {
        "type": "Point",
        "coordinates": [
          -0.140733,
          51.550312
        ]
      }
    },
    {
      "type": "Feature",
      "id": "940GZZLUKBN",
      "properties": {
        "id": "940GZZLUKBN",
        "name": "Kilburn Underground Station",
        "lines": "Jubilee",
        "zone": "2",
        "zoneMax": 2,
        "source": "TfL Unified API"
      },
      "geometry": {
        "type": "Point",
        "coordinates": [
          -0.204248,
          51.547183
        ]
      }
    },
    {
      "type": "Feature",
      "id": "940GZZLUKSX",
      "properties": {
        "id": "940GZZLUKSX",
        "name": "King's Cross St. Pancras Underground Station",
        "lines": "Piccadilly, Victoria",
        "zone": "1",
        "zoneMax": 1,
        "source": "TfL Unified API"
      },
      "geometry": {
        "type": "Point",
        "coordinates": [
          -0.123194,
          51.530663
        ]
      }
    },
    {
      "type": "Feature",
      "id": "940GZZLUKBY",
      "properties": {
        "id": "940GZZLUKBY",
        "name": "Kingsbury Underground Station",
        "lines": "Jubilee",
        "zone": "4",
        "zoneMax": 4,
        "source": "TfL Unified API"
      },
      "geometry": {
        "type": "Point",
        "coordinates": [
          -0.27879,
          51.584845
        ]
      }
    },
    {
      "type": "Feature",
      "id": "940GZZLUKNB",
      "properties": {
        "id": "940GZZLUKNB",
        "name": "Knightsbridge Underground Station",
        "lines": "Piccadilly",
        "zone": "1",
        "zoneMax": 1,
        "source": "TfL Unified API"
      },
      "geometry": {
        "type": "Point",
        "coordinates": [
          -0.160508,
          51.501669
        ]
      }
    },
    {
      "type": "Feature",
      "id": "940GZZLULGT",
      "properties": {
        "id": "940GZZLULGT",
        "name": "Lancaster Gate Underground Station",
        "lines": "Central",
        "zone": "1",
        "zoneMax": 1,
        "source": "TfL Unified API"
      },
      "geometry": {
        "type": "Point",
        "coordinates": [
          -0.175494,
          51.511723
        ]
      }
    },
    {
      "type": "Feature",
      "id": "940GZZLULSQ",
      "properties": {
        "id": "940GZZLULSQ",
        "name": "Leicester Square Underground Station",
        "lines": "Northern, Piccadilly",
        "zone": "1",
        "zoneMax": 1,
        "source": "TfL Unified API"
      },
      "geometry": {
        "type": "Point",
        "coordinates": [
          -0.128426,
          51.511386
        ]
      }
    },
    {
      "type": "Feature",
      "id": "940GZZLULYN",
      "properties": {
        "id": "940GZZLULYN",
        "name": "Leyton Underground Station",
        "lines": "Central",
        "zone": "3",
        "zoneMax": 3,
        "source": "TfL Unified API"
      },
      "geometry": {
        "type": "Point",
        "coordinates": [
          -0.005523,
          51.556589
        ]
      }
    },
    {
      "type": "Feature",
      "id": "940GZZLULYS",
      "properties": {
        "id": "940GZZLULYS",
        "name": "Leytonstone Underground Station",
        "lines": "Central",
        "zone": "3+4",
        "zoneMax": 4,
        "source": "TfL Unified API"
      },
      "geometry": {
        "type": "Point",
        "coordinates": [
          0.008194,
          51.568324
        ]
      }
    },
    {
      "type": "Feature",
      "id": "940GZZLULVT",
      "properties": {
        "id": "940GZZLULVT",
        "name": "Liverpool Street Underground Station",
        "lines": "Central",
        "zone": "1",
        "zoneMax": 1,
        "source": "TfL Unified API"
      },
      "geometry": {
        "type": "Point",
        "coordinates": [
          -0.083182,
          51.517372
        ]
      }
    },
    {
      "type": "Feature",
      "id": "940GZZLULNB",
      "properties": {
        "id": "940GZZLULNB",
        "name": "London Bridge Underground Station",
        "lines": "Jubilee",
        "zone": "1",
        "zoneMax": 1,
        "source": "TfL Unified API"
      },
      "geometry": {
        "type": "Point",
        "coordinates": [
          -0.088873,
          51.505721
        ]
      }
    },
    {
      "type": "Feature",
      "id": "940GZZLULGN",
      "properties": {
        "id": "940GZZLULGN",
        "name": "Loughton Underground Station",
        "lines": "Central",
        "zone": "6",
        "zoneMax": 6,
        "source": "TfL Unified API"
      },
      "geometry": {
        "type": "Point",
        "coordinates": [
          0.055476,
          51.641443
        ]
      }
    },
    {
      "type": "Feature",
      "id": "940GZZLUMRH",
      "properties": {
        "id": "940GZZLUMRH",
        "name": "Manor House Underground Station",
        "lines": "Piccadilly",
        "zone": "2+3",
        "zoneMax": 3,
        "source": "TfL Unified API"
      },
      "geometry": {
        "type": "Point",
        "coordinates": [
          -0.096118,
          51.570738
        ]
      }
    },
    {
      "type": "Feature",
      "id": "940GZZLUMBA",
      "properties": {
        "id": "940GZZLUMBA",
        "name": "Marble Arch Underground Station",
        "lines": "Central",
        "zone": "1",
        "zoneMax": 1,
        "source": "TfL Unified API"
      },
      "geometry": {
        "type": "Point",
        "coordinates": [
          -0.158953,
          51.513424
        ]
      }
    },
    {
      "type": "Feature",
      "id": "940GZZLUMED",
      "properties": {
        "id": "940GZZLUMED",
        "name": "Mile End Underground Station",
        "lines": "Central",
        "zone": "2",
        "zoneMax": 2,
        "source": "TfL Unified API"
      },
      "geometry": {
        "type": "Point",
        "coordinates": [
          -0.03364,
          51.525122
        ]
      }
    },
    {
      "type": "Feature",
      "id": "940GZZLUMDN",
      "properties": {
        "id": "940GZZLUMDN",
        "name": "Morden Underground Station",
        "lines": "Northern",
        "zone": "4",
        "zoneMax": 4,
        "source": "TfL Unified API"
      },
      "geometry": {
        "type": "Point",
        "coordinates": [
          -0.194839,
          51.402142
        ]
      }
    },
    {
      "type": "Feature",
      "id": "940GZZLUMTC",
      "properties": {
        "id": "940GZZLUMTC",
        "name": "Mornington Crescent Underground Station",
        "lines": "Northern",
        "zone": "2",
        "zoneMax": 2,
        "source": "TfL Unified API"
      },
      "geometry": {
        "type": "Point",
        "coordinates": [
          -0.138789,
          51.534679
        ]
      }
    },
    {
      "type": "Feature",
      "id": "940GZZLUNDN",
      "properties": {
        "id": "940GZZLUNDN",
        "name": "Neasden Underground Station",
        "lines": "Jubilee",
        "zone": "3",
        "zoneMax": 3,
        "source": "TfL Unified API"
      },
      "geometry": {
        "type": "Point",
        "coordinates": [
          -0.249837,
          51.553986
        ]
      }
    },
    {
      "type": "Feature",
      "id": "910GNEWXGTE",
      "properties": {
        "id": "910GNEWXGTE",
        "name": "New Cross Gate Rail Station",
        "lines": "Windrush",
        "zone": "2",
        "zoneMax": 2,
        "source": "TfL Unified API"
      },
      "geometry": {
        "type": "Point",
        "coordinates": [
          -0.040399,
          51.475128
        ]
      }
    },
    {
      "type": "Feature",
      "id": "940GZZLUNBP",
      "properties": {
        "id": "940GZZLUNBP",
        "name": "Newbury Park Underground Station",
        "lines": "Central",
        "zone": "4",
        "zoneMax": 4,
        "source": "TfL Unified API"
      },
      "geometry": {
        "type": "Point",
        "coordinates": [
          0.090004,
          51.575726
        ]
      }
    },
    {
      "type": "Feature",
      "id": "940GZZLUNAN",
      "properties": {
        "id": "940GZZLUNAN",
        "name": "North Acton Underground Station",
        "lines": "Central",
        "zone": "2+3",
        "zoneMax": 3,
        "source": "TfL Unified API"
      },
      "geometry": {
        "type": "Point",
        "coordinates": [
          -0.259755,
          51.523524
        ]
      }
    },
    {
      "type": "Feature",
      "id": "940GZZLUNGW",
      "properties": {
        "id": "940GZZLUNGW",
        "name": "North Greenwich Underground Station",
        "lines": "Jubilee",
        "zone": "2/3",
        "zoneMax": 3,
        "source": "TfL Unified API"
      },
      "geometry": {
        "type": "Point",
        "coordinates": [
          0.004287,
          51.50047
        ]
      }
    },
    {
      "type": "Feature",
      "id": "940GZZLUNFD",
      "properties": {
        "id": "940GZZLUNFD",
        "name": "Northfields Underground Station",
        "lines": "Piccadilly",
        "zone": "3",
        "zoneMax": 3,
        "source": "TfL Unified API"
      },
      "geometry": {
        "type": "Point",
        "coordinates": [
          -0.314719,
          51.499319
        ]
      }
    },
    {
      "type": "Feature",
      "id": "940GZZLUNHG",
      "properties": {
        "id": "940GZZLUNHG",
        "name": "Notting Hill Gate Underground Station",
        "lines": "Central",
        "zone": "1+2",
        "zoneMax": 2,
        "source": "TfL Unified API"
      },
      "geometry": {
        "type": "Point",
        "coordinates": [
          -0.196104,
          51.509128
        ]
      }
    },
    {
      "type": "Feature",
      "id": "940GZZLUOAK",
      "properties": {
        "id": "940GZZLUOAK",
        "name": "Oakwood Underground Station",
        "lines": "Piccadilly",
        "zone": "5",
        "zoneMax": 5,
        "source": "TfL Unified API"
      },
      "geometry": {
        "type": "Point",
        "coordinates": [
          -0.132182,
          51.647726
        ]
      }
    },
    {
      "type": "Feature",
      "id": "940GZZLUOSY",
      "properties": {
        "id": "940GZZLUOSY",
        "name": "Osterley Underground Station",
        "lines": "Piccadilly",
        "zone": "4",
        "zoneMax": 4,
        "source": "TfL Unified API"
      },
      "geometry": {
        "type": "Point",
        "coordinates": [
          -0.352224,
          51.481274
        ]
      }
    },
    {
      "type": "Feature",
      "id": "940GZZLUOVL",
      "properties": {
        "id": "940GZZLUOVL",
        "name": "Oval Underground Station",
        "lines": "Northern",
        "zone": "2",
        "zoneMax": 2,
        "source": "TfL Unified API"
      },
      "geometry": {
        "type": "Point",
        "coordinates": [
          -0.112439,
          51.48185
        ]
      }
    },
    {
      "type": "Feature",
      "id": "940GZZLUOXC",
      "properties": {
        "id": "940GZZLUOXC",
        "name": "Oxford Circus Underground Station",
        "lines": "Central, Victoria",
        "zone": "1",
        "zoneMax": 1,
        "source": "TfL Unified API"
      },
      "geometry": {
        "type": "Point",
        "coordinates": [
          -0.141903,
          51.515224
        ]
      }
    },
    {
      "type": "Feature",
      "id": "940GZZLUPCC",
      "properties": {
        "id": "940GZZLUPCC",
        "name": "Piccadilly Circus Underground Station",
        "lines": "Piccadilly",
        "zone": "1",
        "zoneMax": 1,
        "source": "TfL Unified API"
      },
      "geometry": {
        "type": "Point",
        "coordinates": [
          -0.133798,
          51.51005
        ]
      }
    },
    {
      "type": "Feature",
      "id": "940GZZLUPCO",
      "properties": {
        "id": "940GZZLUPCO",
        "name": "Pimlico Underground Station",
        "lines": "Victoria",
        "zone": "1",
        "zoneMax": 1,
        "source": "TfL Unified API"
      },
      "geometry": {
        "type": "Point",
        "coordinates": [
          -0.133761,
          51.489097
        ]
      }
    },
    {
      "type": "Feature",
      "id": "940GZZLUQBY",
      "properties": {
        "id": "940GZZLUQBY",
        "name": "Queensbury Underground Station",
        "lines": "Jubilee",
        "zone": "4",
        "zoneMax": 4,
        "source": "TfL Unified API"
      },
      "geometry": {
        "type": "Point",
        "coordinates": [
          -0.286219,
          51.594188
        ]
      }
    },
    {
      "type": "Feature",
      "id": "940GZZLUQWY",
      "properties": {
        "id": "940GZZLUQWY",
        "name": "Queensway Underground Station",
        "lines": "Central",
        "zone": "1",
        "zoneMax": 1,
        "source": "TfL Unified API"
      },
      "geometry": {
        "type": "Point",
        "coordinates": [
          -0.187152,
          51.510312
        ]
      }
    },
    {
      "type": "Feature",
      "id": "940GZZLURBG",
      "properties": {
        "id": "940GZZLURBG",
        "name": "Redbridge Underground Station",
        "lines": "Central",
        "zone": "4",
        "zoneMax": 4,
        "source": "TfL Unified API"
      },
      "geometry": {
        "type": "Point",
        "coordinates": [
          0.04536,
          51.576243
        ]
      }
    },
    {
      "type": "Feature",
      "id": "910GRTHERHI",
      "properties": {
        "id": "910GRTHERHI",
        "name": "Rotherhithe Rail Station",
        "lines": "Windrush",
        "zone": "2",
        "zoneMax": 2,
        "source": "TfL Unified API"
      },
      "geometry": {
        "type": "Point",
        "coordinates": [
          -0.052048,
          51.500817
        ]
      }
    },
    {
      "type": "Feature",
      "id": "940GZZLURSQ",
      "properties": {
        "id": "940GZZLURSQ",
        "name": "Russell Square Underground Station",
        "lines": "Piccadilly",
        "zone": "1",
        "zoneMax": 1,
        "source": "TfL Unified API"
      },
      "geometry": {
        "type": "Point",
        "coordinates": [
          -0.124285,
          51.523073
        ]
      }
    },
    {
      "type": "Feature",
      "id": "940GZZLUSVS",
      "properties": {
        "id": "940GZZLUSVS",
        "name": "Seven Sisters Underground Station",
        "lines": "Victoria",
        "zone": "3",
        "zoneMax": 3,
        "source": "TfL Unified API"
      },
      "geometry": {
        "type": "Point",
        "coordinates": [
          -0.072584,
          51.58333
        ]
      }
    },
    {
      "type": "Feature",
      "id": "910GSHADWEL",
      "properties": {
        "id": "910GSHADWEL",
        "name": "Shadwell Rail Station",
        "lines": "Windrush",
        "zone": "2",
        "zoneMax": 2,
        "source": "TfL Unified API"
      },
      "geometry": {
        "type": "Point",
        "coordinates": [
          -0.056934,
          51.511284
        ]
      }
    },
    {
      "type": "Feature",
      "id": "940GZZLUSBC",
      "properties": {
        "id": "940GZZLUSBC",
        "name": "Shepherd's Bush (Central) Underground Station",
        "lines": "Central",
        "zone": "2",
        "zoneMax": 2,
        "source": "TfL Unified API"
      },
      "geometry": {
        "type": "Point",
        "coordinates": [
          -0.218813,
          51.504376
        ]
      }
    },
    {
      "type": "Feature",
      "id": "910GSHRDHST",
      "properties": {
        "id": "910GSHRDHST",
        "name": "Shoreditch High Street Rail Station",
        "lines": "Windrush",
        "zone": "1",
        "zoneMax": 1,
        "source": "TfL Unified API"
      },
      "geometry": {
        "type": "Point",
        "coordinates": [
          -0.075246,
          51.523375
        ]
      }
    },
    {
      "type": "Feature",
      "id": "940GZZLUSNB",
      "properties": {
        "id": "940GZZLUSNB",
        "name": "Snaresbrook Underground Station",
        "lines": "Central",
        "zone": "4",
        "zoneMax": 4,
        "source": "TfL Unified API"
      },
      "geometry": {
        "type": "Point",
        "coordinates": [
          0.02144,
          51.580678
        ]
      }
    },
    {
      "type": "Feature",
      "id": "940GZZLUSEA",
      "properties": {
        "id": "940GZZLUSEA",
        "name": "South Ealing Underground Station",
        "lines": "Piccadilly",
        "zone": "3",
        "zoneMax": 3,
        "source": "TfL Unified API"
      },
      "geometry": {
        "type": "Point",
        "coordinates": [
          -0.307424,
          51.501003
        ]
      }
    },
    {
      "type": "Feature",
      "id": "940GZZLUSKS",
      "properties": {
        "id": "940GZZLUSKS",
        "name": "South Kensington Underground Station",
        "lines": "Piccadilly",
        "zone": "1",
        "zoneMax": 1,
        "source": "TfL Unified API"
      },
      "geometry": {
        "type": "Point",
        "coordinates": [
          -0.174138,
          51.494094
        ]
      }
    },
    {
      "type": "Feature",
      "id": "940GZZLUSWN",
      "properties": {
        "id": "940GZZLUSWN",
        "name": "South Wimbledon Underground Station",
        "lines": "Northern",
        "zone": "3+4",
        "zoneMax": 4,
        "source": "TfL Unified API"
      },
      "geometry": {
        "type": "Point",
        "coordinates": [
          -0.192005,
          51.415309
        ]
      }
    },
    {
      "type": "Feature",
      "id": "940GZZLUSWF",
      "properties": {
        "id": "940GZZLUSWF",
        "name": "South Woodford Underground Station",
        "lines": "Central",
        "zone": "4",
        "zoneMax": 4,
        "source": "TfL Unified API"
      },
      "geometry": {
        "type": "Point",
        "coordinates": [
          0.027338,
          51.591907
        ]
      }
    },
    {
      "type": "Feature",
      "id": "940GZZLUSGT",
      "properties": {
        "id": "940GZZLUSGT",
        "name": "Southgate Underground Station",
        "lines": "Piccadilly",
        "zone": "4",
        "zoneMax": 4,
        "source": "TfL Unified API"
      },
      "geometry": {
        "type": "Point",
        "coordinates": [
          -0.127816,
          51.632315
        ]
      }
    },
    {
      "type": "Feature",
      "id": "940GZZLUSWK",
      "properties": {
        "id": "940GZZLUSWK",
        "name": "Southwark Underground Station",
        "lines": "Jubilee",
        "zone": "1",
        "zoneMax": 1,
        "source": "TfL Unified API"
      },
      "geometry": {
        "type": "Point",
        "coordinates": [
          -0.105331,
          51.50427
        ]
      }
    },
    {
      "type": "Feature",
      "id": "940GZZLUSJW",
      "properties": {
        "id": "940GZZLUSJW",
        "name": "St. John's Wood Underground Station",
        "lines": "Jubilee",
        "zone": "2",
        "zoneMax": 2,
        "source": "TfL Unified API"
      },
      "geometry": {
        "type": "Point",
        "coordinates": [
          -0.173948,
          51.534521
        ]
      }
    },
    {
      "type": "Feature",
      "id": "940GZZLUSPU",
      "properties": {
        "id": "940GZZLUSPU",
        "name": "St. Paul's Underground Station",
        "lines": "Central",
        "zone": "1",
        "zoneMax": 1,
        "source": "TfL Unified API"
      },
      "geometry": {
        "type": "Point",
        "coordinates": [
          -0.097567,
          51.514936
        ]
      }
    },
    {
      "type": "Feature",
      "id": "940GZZLUSTM",
      "properties": {
        "id": "940GZZLUSTM",
        "name": "Stanmore Underground Station",
        "lines": "Jubilee",
        "zone": "5",
        "zoneMax": 5,
        "source": "TfL Unified API"
      },
      "geometry": {
        "type": "Point",
        "coordinates": [
          -0.303266,
          51.619839
        ]
      }
    },
    {
      "type": "Feature",
      "id": "940GZZLUSKW",
      "properties": {
        "id": "940GZZLUSKW",
        "name": "Stockwell Underground Station",
        "lines": "Northern, Victoria",
        "zone": "2",
        "zoneMax": 2,
        "source": "TfL Unified API"
      },
      "geometry": {
        "type": "Point",
        "coordinates": [
          -0.122644,
          51.472184
        ]
      }
    },
    {
      "type": "Feature",
      "id": "940GZZLUSTD",
      "properties": {
        "id": "940GZZLUSTD",
        "name": "Stratford Underground Station",
        "lines": "Central, Jubilee",
        "zone": "2/3",
        "zoneMax": 3,
        "source": "TfL Unified API"
      },
      "geometry": {
        "type": "Point",
        "coordinates": [
          -0.003458,
          51.541806
        ]
      }
    },
    {
      "type": "Feature",
      "id": "910GSURREYQ",
      "properties": {
        "id": "910GSURREYQ",
        "name": "Surrey Quays Rail Station",
        "lines": "Windrush",
        "zone": "2",
        "zoneMax": 2,
        "source": "TfL Unified API"
      },
      "geometry": {
        "type": "Point",
        "coordinates": [
          -0.047519,
          51.493196
        ]
      }
    },
    {
      "type": "Feature",
      "id": "940GZZLUSWC",
      "properties": {
        "id": "940GZZLUSWC",
        "name": "Swiss Cottage Underground Station",
        "lines": "Jubilee",
        "zone": "2",
        "zoneMax": 2,
        "source": "TfL Unified API"
      },
      "geometry": {
        "type": "Point",
        "coordinates": [
          -0.174894,
          51.543681
        ]
      }
    },
    {
      "type": "Feature",
      "id": "940GZZLUTBC",
      "properties": {
        "id": "940GZZLUTBC",
        "name": "Tooting Bec Underground Station",
        "lines": "Northern",
        "zone": "3",
        "zoneMax": 3,
        "source": "TfL Unified API"
      },
      "geometry": {
        "type": "Point",
        "coordinates": [
          -0.159736,
          51.435678
        ]
      }
    },
    {
      "type": "Feature",
      "id": "940GZZLUTBY",
      "properties": {
        "id": "940GZZLUTBY",
        "name": "Tooting Broadway Underground Station",
        "lines": "Northern",
        "zone": "3",
        "zoneMax": 3,
        "source": "TfL Unified API"
      },
      "geometry": {
        "type": "Point",
        "coordinates": [
          -0.168374,
          51.42763
        ]
      }
    },
    {
      "type": "Feature",
      "id": "940GZZLUTCR",
      "properties": {
        "id": "940GZZLUTCR",
        "name": "Tottenham Court Road Underground Station",
        "lines": "Central, Northern",
        "zone": "1",
        "zoneMax": 1,
        "source": "TfL Unified API"
      },
      "geometry": {
        "type": "Point",
        "coordinates": [
          -0.13041,
          51.516426
        ]
      }
    },
    {
      "type": "Feature",
      "id": "940GZZLUTMH",
      "properties": {
        "id": "940GZZLUTMH",
        "name": "Tottenham Hale Underground Station",
        "lines": "Victoria",
        "zone": "3",
        "zoneMax": 3,
        "source": "TfL Unified API"
      },
      "geometry": {
        "type": "Point",
        "coordinates": [
          -0.060241,
          51.588108
        ]
      }
    },
    {
      "type": "Feature",
      "id": "940GZZLUTAW",
      "properties": {
        "id": "940GZZLUTAW",
        "name": "Totteridge & Whetstone Underground Station",
        "lines": "Northern",
        "zone": "4",
        "zoneMax": 4,
        "source": "TfL Unified API"
      },
      "geometry": {
        "type": "Point",
        "coordinates": [
          -0.17921,
          51.630597
        ]
      }
    },
    {
      "type": "Feature",
      "id": "940GZZLUTFP",
      "properties": {
        "id": "940GZZLUTFP",
        "name": "Tufnell Park Underground Station",
        "lines": "Northern",
        "zone": "2",
        "zoneMax": 2,
        "source": "TfL Unified API"
      },
      "geometry": {
        "type": "Point",
        "coordinates": [
          -0.138433,
          51.556822
        ]
      }
    },
    {
      "type": "Feature",
      "id": "940GZZLUTNG",
      "properties": {
        "id": "940GZZLUTNG",
        "name": "Turnham Green Underground Station",
        "lines": "Piccadilly",
        "zone": "2+3",
        "zoneMax": 3,
        "source": "TfL Unified API"
      },
      "geometry": {
        "type": "Point",
        "coordinates": [
          -0.254555,
          51.495148
        ]
      }
    },
    {
      "type": "Feature",
      "id": "940GZZLUTPN",
      "properties": {
        "id": "940GZZLUTPN",
        "name": "Turnpike Lane Underground Station",
        "lines": "Piccadilly",
        "zone": "3",
        "zoneMax": 3,
        "source": "TfL Unified API"
      },
      "geometry": {
        "type": "Point",
        "coordinates": [
          -0.102953,
          51.590272
        ]
      }
    },
    {
      "type": "Feature",
      "id": "940GZZLUVXL",
      "properties": {
        "id": "940GZZLUVXL",
        "name": "Vauxhall Underground Station",
        "lines": "Victoria",
        "zone": "1+2",
        "zoneMax": 2,
        "source": "TfL Unified API"
      },
      "geometry": {
        "type": "Point",
        "coordinates": [
          -0.124204,
          51.485743
        ]
      }
    },
    {
      "type": "Feature",
      "id": "940GZZLUVIC",
      "properties": {
        "id": "940GZZLUVIC",
        "name": "Victoria Underground Station",
        "lines": "Victoria",
        "zone": "1",
        "zoneMax": 1,
        "source": "TfL Unified API"
      },
      "geometry": {
        "type": "Point",
        "coordinates": [
          -0.143102,
          51.496359
        ]
      }
    },
    {
      "type": "Feature",
      "id": "940GZZLUWWL",
      "properties": {
        "id": "940GZZLUWWL",
        "name": "Walthamstow Central Underground Station",
        "lines": "Victoria",
        "zone": "3",
        "zoneMax": 3,
        "source": "TfL Unified API"
      },
      "geometry": {
        "type": "Point",
        "coordinates": [
          -0.019885,
          51.582965
        ]
      }
    },
    {
      "type": "Feature",
      "id": "940GZZLUWSD",
      "properties": {
        "id": "940GZZLUWSD",
        "name": "Wanstead Underground Station",
        "lines": "Central",
        "zone": "4",
        "zoneMax": 4,
        "source": "TfL Unified API"
      },
      "geometry": {
        "type": "Point",
        "coordinates": [
          0.028527,
          51.575501
        ]
      }
    },
    {
      "type": "Feature",
      "id": "910GWAPPING",
      "properties": {
        "id": "910GWAPPING",
        "name": "Wapping Rail Station",
        "lines": "Windrush",
        "zone": "2",
        "zoneMax": 2,
        "source": "TfL Unified API"
      },
      "geometry": {
        "type": "Point",
        "coordinates": [
          -0.055931,
          51.504388
        ]
      }
    },
    {
      "type": "Feature",
      "id": "940GZZLUWRR",
      "properties": {
        "id": "940GZZLUWRR",
        "name": "Warren Street Underground Station",
        "lines": "Northern, Victoria",
        "zone": "1",
        "zoneMax": 1,
        "source": "TfL Unified API"
      },
      "geometry": {
        "type": "Point",
        "coordinates": [
          -0.138321,
          51.524951
        ]
      }
    },
    {
      "type": "Feature",
      "id": "940GZZLUWLO",
      "properties": {
        "id": "940GZZLUWLO",
        "name": "Waterloo Underground Station",
        "lines": "Jubilee, Northern",
        "zone": "1",
        "zoneMax": 1,
        "source": "TfL Unified API"
      },
      "geometry": {
        "type": "Point",
        "coordinates": [
          -0.11478,
          51.503299
        ]
      }
    },
    {
      "type": "Feature",
      "id": "940GZZLUWYP",
      "properties": {
        "id": "940GZZLUWYP",
        "name": "Wembley Park Underground Station",
        "lines": "Jubilee",
        "zone": "4",
        "zoneMax": 4,
        "source": "TfL Unified API"
      },
      "geometry": {
        "type": "Point",
        "coordinates": [
          -0.279262,
          51.563198
        ]
      }
    },
    {
      "type": "Feature",
      "id": "940GZZLUWTA",
      "properties": {
        "id": "940GZZLUWTA",
        "name": "West Acton Underground Station",
        "lines": "Central",
        "zone": "3",
        "zoneMax": 3,
        "source": "TfL Unified API"
      },
      "geometry": {
        "type": "Point",
        "coordinates": [
          -0.28098,
          51.518001
        ]
      }
    },
    {
      "type": "Feature",
      "id": "940GZZLUWFN",
      "properties": {
        "id": "940GZZLUWFN",
        "name": "West Finchley Underground Station",
        "lines": "Northern",
        "zone": "4",
        "zoneMax": 4,
        "source": "TfL Unified API"
      },
      "geometry": {
        "type": "Point",
        "coordinates": [
          -0.188362,
          51.609426
        ]
      }
    },
    {
      "type": "Feature",
      "id": "940GZZLUWHM",
      "properties": {
        "id": "940GZZLUWHM",
        "name": "West Ham Underground Station",
        "lines": "Jubilee",
        "zone": "2/3",
        "zoneMax": 3,
        "source": "TfL Unified API"
      },
      "geometry": {
        "type": "Point",
        "coordinates": [
          0.005055,
          51.528136
        ]
      }
    },
    {
      "type": "Feature",
      "id": "940GZZLUWHP",
      "properties": {
        "id": "940GZZLUWHP",
        "name": "West Hampstead Underground Station",
        "lines": "Jubilee",
        "zone": "2",
        "zoneMax": 2,
        "source": "TfL Unified API"
      },
      "geometry": {
        "type": "Point",
        "coordinates": [
          -0.191059,
          51.546638
        ]
      }
    },
    {
      "type": "Feature",
      "id": "940GZZLUWSM",
      "properties": {
        "id": "940GZZLUWSM",
        "name": "Westminster Underground Station",
        "lines": "Jubilee",
        "zone": "1",
        "zoneMax": 1,
        "source": "TfL Unified API"
      },
      "geometry": {
        "type": "Point",
        "coordinates": [
          -0.124861,
          51.50132
        ]
      }
    },
    {
      "type": "Feature",
      "id": "940GZZLUWCY",
      "properties": {
        "id": "940GZZLUWCY",
        "name": "White City Underground Station",
        "lines": "Central",
        "zone": "2",
        "zoneMax": 2,
        "source": "TfL Unified API"
      },
      "geometry": {
        "type": "Point",
        "coordinates": [
          -0.224297,
          51.511959
        ]
      }
    },
    {
      "type": "Feature",
      "id": "910GWCHAPEL",
      "properties": {
        "id": "910GWCHAPEL",
        "name": "Whitechapel Rail Station",
        "lines": "Windrush",
        "zone": "2",
        "zoneMax": 2,
        "source": "TfL Unified API"
      },
      "geometry": {
        "type": "Point",
        "coordinates": [
          -0.059757,
          51.519469
        ]
      }
    },
    {
      "type": "Feature",
      "id": "940GZZLUWIG",
      "properties": {
        "id": "940GZZLUWIG",
        "name": "Willesden Green Underground Station",
        "lines": "Jubilee",
        "zone": "2+3",
        "zoneMax": 3,
        "source": "TfL Unified API"
      },
      "geometry": {
        "type": "Point",
        "coordinates": [
          -0.221537,
          51.549146
        ]
      }
    },
    {
      "type": "Feature",
      "id": "940GZZLUWOG",
      "properties": {
        "id": "940GZZLUWOG",
        "name": "Wood Green Underground Station",
        "lines": "Piccadilly",
        "zone": "3",
        "zoneMax": 3,
        "source": "TfL Unified API"
      },
      "geometry": {
        "type": "Point",
        "coordinates": [
          -0.109886,
          51.597479
        ]
      }
    },
    {
      "type": "Feature",
      "id": "940GZZLUWOF",
      "properties": {
        "id": "940GZZLUWOF",
        "name": "Woodford Underground Station",
        "lines": "Central",
        "zone": "4",
        "zoneMax": 4,
        "source": "TfL Unified API"
      },
      "geometry": {
        "type": "Point",
        "coordinates": [
          0.03397,
          51.606899
        ]
      }
    },
    {
      "type": "Feature",
      "id": "940GZZLUWOP",
      "properties": {
        "id": "940GZZLUWOP",
        "name": "Woodside Park Underground Station",
        "lines": "Northern",
        "zone": "4",
        "zoneMax": 4,
        "source": "TfL Unified API"
      },
      "geometry": {
        "type": "Point",
        "coordinates": [
          -0.18542,
          51.618014
        ]
      }
    }
  ]
}
